FENGYUN 1C DEB          
1 31002U 99025BCU 17345.06507976 -.00000070  00000-0 -17846-4 0  9990
2 31002  99.1590  10.4388 0102754 112.2705 304.2272 13.96920308547728
